{"zip_codes":[{"zip_code":"10307","distance":19.525,"city":"Staten Island","state":"NY"},{"zip_code":"10309","distance":17.757,"city":"Staten Island","state":"NY"},{"zip_code":"10312","distance":15.699,"city":"Staten Island","state":"NY"},{"zip_code":"10308","distance":14.333,"city":"Staten Island","state":"NY"},{"zip_code":"11697","distance":12.547,"city":"Breezy Point","state":"NY"},{"zip_code":"07095","distance":19.277,"city":"Woodbridge","state":"NJ"},{"zip_code":"07077","distance":17.86,"city":"Sewaren","state":"NJ"},{"zip_code":"07064","distance":16.943,"city":"Port Reading","state":"NJ"},{"zip_code":"08830","distance":19.799,"city":"Iselin","state":"NJ"},{"zip_code":"10306","distance":12.56,"city":"Staten Island","state":"NY"},{"zip_code":"11224","distance":10.249,"city":"Brooklyn","state":"NY"},{"zip_code":"11694","distance":12.976,"city":"Rockaway Park","state":"NY"},{"zip_code":"10313","distance":12.513,"city":"Staten Island","state":"NY"},{"zip_code":"07001","distance":17.412,"city":"Avenel","state":"NJ"},{"zip_code":"07008","distance":15.5,"city":"Carteret","state":"NJ"},{"zip_code":"11235","distance":10.11,"city":"Brooklyn","state":"NY"},{"zip_code":"11509","distance":17.017,"city":"Atlantic Beach","state":"NY"},{"zip_code":"07067","distance":18.936,"city":"Colonia","state":"NJ"},{"zip_code":"11690","distance":13.593,"city":"Far Rockaway","state":"NY"},{"zip_code":"11695","distance":13.593,"city":"Far Rockaway","state":"NY"},{"zip_code":"11693","distance":13.571,"city":"Far Rockaway","state":"NY"},{"zip_code":"11692","distance":14.117,"city":"Arverne","state":"NY"},{"zip_code":"10305","distance":9.77,"city":"Staten Island","state":"NY"},{"zip_code":"11223","distance":8.965,"city":"Brooklyn","state":"NY"},{"zip_code":"11214","distance":8.733,"city":"Brooklyn","state":"NY"},{"zip_code":"10314","distance":12.391,"city":"Staten Island","state":"NY"},{"zip_code":"11229","distance":9.039,"city":"Brooklyn","state":"NY"},{"zip_code":"11691","distance":15.084,"city":"Far Rockaway","state":"NY"},{"zip_code":"11559","distance":16.951,"city":"Lawrence","state":"NY"},{"zip_code":"10311","distance":12.638,"city":"Staten Island","state":"NY"},{"zip_code":"11234","distance":9.44,"city":"Brooklyn","state":"NY"},{"zip_code":"07065","distance":16.915,"city":"Rahway","state":"NJ"},{"zip_code":"11425","distance":8.254,"city":"Jamaica","state":"NY"},{"zip_code":"10304","distance":9.441,"city":"Staten Island","state":"NY"},{"zip_code":"11228","distance":7.562,"city":"Brooklyn","state":"NY"},{"zip_code":"11204","distance":7.411,"city":"Brooklyn","state":"NY"},{"zip_code":"07066","distance":18.144,"city":"Clark","state":"NJ"},{"zip_code":"11096","distance":14.548,"city":"Inwood","state":"NY"},{"zip_code":"11209","distance":7.348,"city":"Brooklyn","state":"NY"},{"zip_code":"11230","distance":7.351,"city":"Brooklyn","state":"NY"},{"zip_code":"07036","distance":14.337,"city":"Linden","state":"NJ"},{"zip_code":"11516","distance":15.812,"city":"Cedarhurst","state":"NY"},{"zip_code":"10301","distance":8.448,"city":"Staten Island","state":"NY"},{"zip_code":"11210","distance":7.252,"city":"Brooklyn","state":"NY"},{"zip_code":"10303","distance":11.343,"city":"Staten Island","state":"NY"},{"zip_code":"10302","distance":9.828,"city":"Staten Island","state":"NY"},{"zip_code":"11598","distance":16.345,"city":"Woodmere","state":"NY"},{"zip_code":"10310","distance":8.912,"city":"Staten Island","state":"NY"},{"zip_code":"11219","distance":6.417,"city":"Brooklyn","state":"NY"},{"zip_code":"11557","distance":17.154,"city":"Hewlett","state":"NY"},{"zip_code":"11518","distance":18.388,"city":"East Rockaway","state":"NY"},{"zip_code":"11236","distance":7.839,"city":"Brooklyn","state":"NY"},{"zip_code":"11202","distance":6.643,"city":"Brooklyn","state":"NY"},{"zip_code":"11241","distance":6.643,"city":"Brooklyn","state":"NY"},{"zip_code":"11242","distance":6.643,"city":"Brooklyn","state":"NY"},{"zip_code":"11243","distance":6.643,"city":"Brooklyn","state":"NY"},{"zip_code":"11245","distance":6.643,"city":"Brooklyn","state":"NY"},{"zip_code":"11247","distance":6.643,"city":"Brooklyn","state":"NY"},{"zip_code":"11249","distance":6.643,"city":"Brooklyn","state":"NY"},{"zip_code":"11251","distance":6.643,"city":"Brooklyn","state":"NY"},{"zip_code":"11252","distance":6.643,"city":"Brooklyn","state":"NY"},{"zip_code":"11256","distance":6.643,"city":"Brooklyn","state":"NY"},{"zip_code":"11220","distance":5.914,"city":"Brooklyn","state":"NY"},{"zip_code":"11218","distance":5.783,"city":"Brooklyn","state":"NY"},{"zip_code":"11226","distance":5.879,"city":"Brooklyn","state":"NY"},{"zip_code":"11430","distance":12.367,"city":"Jamaica","state":"NY"},{"zip_code":"11239","distance":8.216,"city":"Brooklyn","state":"NY"},{"zip_code":"11203","distance":6.217,"city":"Brooklyn","state":"NY"},{"zip_code":"07091","distance":18.666,"city":"Westfield","state":"NJ"},{"zip_code":"11581","distance":15.669,"city":"Valley Stream","state":"NY"},{"zip_code":"07027","distance":17.778,"city":"Garwood","state":"NJ"},{"zip_code":"07090","distance":18.807,"city":"Westfield","state":"NJ"},{"zip_code":"07206","distance":10.985,"city":"Elizabethport","state":"NJ"},{"zip_code":"07203","distance":14.624,"city":"Roselle","state":"NJ"},{"zip_code":"07202","distance":12.532,"city":"Elizabeth","state":"NJ"},{"zip_code":"07016","distance":16.755,"city":"Cranford","state":"NJ"},{"zip_code":"11563","distance":17.632,"city":"Lynbrook","state":"NY"},{"zip_code":"11414","distance":9.314,"city":"Howard Beach","state":"NY"},{"zip_code":"11232","distance":4.699,"city":"Brooklyn","state":"NY"},{"zip_code":"07207","distance":11.028,"city":"Elizabeth","state":"NJ"},{"zip_code":"11582","distance":16.252,"city":"Valley Stream","state":"NY"},{"zip_code":"11571","distance":19.795,"city":"Rockville Centre","state":"NY"},{"zip_code":"11422","distance":14.444,"city":"Rosedale","state":"NY"},{"zip_code":"07002","distance":7.319,"city":"Bayonne","state":"NJ"},{"zip_code":"11215","distance":4.384,"city":"Brooklyn","state":"NY"},{"zip_code":"11212","distance":6.201,"city":"Brooklyn","state":"NY"},{"zip_code":"11225","distance":4.898,"city":"Brooklyn","state":"NY"},{"zip_code":"07204","distance":14.68,"city":"Roselle Park","state":"NJ"},{"zip_code":"11570","distance":19.292,"city":"Rockville Centre","state":"NY"},{"zip_code":"11208","distance":7.74,"city":"Brooklyn","state":"NY"},{"zip_code":"11536","distance":16.073,"city":"Garden City","state":"NY"},{"zip_code":"11207","distance":6.621,"city":"Brooklyn","state":"NY"},{"zip_code":"11213","distance":4.968,"city":"Brooklyn","state":"NY"},{"zip_code":"11413","distance":13.406,"city":"Springfield Gardens","state":"NY"},{"zip_code":"11420","distance":10.113,"city":"South Ozone Park","state":"NY"},{"zip_code":"07208","distance":12.497,"city":"Elizabeth","state":"NJ"},{"zip_code":"11580","distance":15.877,"city":"Valley Stream","state":"NY"},{"zip_code":"11565","distance":17.459,"city":"Malverne","state":"NY"},{"zip_code":"11436","distance":11.109,"city":"Jamaica","state":"NY"},{"zip_code":"11417","distance":8.729,"city":"Ozone Park","state":"NY"},{"zip_code":"11434","distance":12.093,"city":"Jamaica","state":"NY"},{"zip_code":"07033","distance":15.604,"city":"Kenilworth","state":"NJ"},{"zip_code":"11231","distance":3.309,"city":"Brooklyn","state":"NY"},{"zip_code":"11233","distance":5.227,"city":"Brooklyn","state":"NY"},{"zip_code":"11238","distance":3.677,"city":"Brooklyn","state":"NY"},{"zip_code":"11244","distance":3.175,"city":"Brooklyn","state":"NY"},{"zip_code":"11405","distance":11.859,"city":"Jamaica","state":"NY"},{"zip_code":"11431","distance":11.859,"city":"Jamaica","state":"NY"},{"zip_code":"11439","distance":11.859,"city":"Jamaica","state":"NY"},{"zip_code":"11499","distance":11.859,"city":"Jamaica","state":"NY"},{"zip_code":"07092","distance":19.218,"city":"Mountainside","state":"NJ"},{"zip_code":"11216","distance":4.011,"city":"Brooklyn","state":"NY"},{"zip_code":"11217","distance":3.168,"city":"Brooklyn","state":"NY"},{"zip_code":"11416","distance":8.271,"city":"Ozone Park","state":"NY"},{"zip_code":"11419","distance":9.53,"city":"South Richmond Hill","state":"NY"},{"zip_code":"10004","distance":2.743,"city":"New York","state":"NY"},{"zip_code":"07201","distance":9.12,"city":"Elizabeth","state":"NJ"},{"zip_code":"11248","distance":2.49,"city":"Brooklyn","state":"NY"},{"zip_code":"11254","distance":2.49,"city":"Brooklyn","state":"NY"},{"zip_code":"11240","distance":2.636,"city":"Brooklyn","state":"NY"},{"zip_code":"11255","distance":2.636,"city":"Brooklyn","state":"NY"},{"zip_code":"11221","distance":4.383,"city":"Brooklyn","state":"NY"},{"zip_code":"11552","distance":18.235,"city":"West Hempstead","state":"NY"},{"zip_code":"11201","distance":2.241,"city":"Brooklyn","state":"NY"},{"zip_code":"11421","distance":7.61,"city":"Woodhaven","state":"NY"},{"zip_code":"11411","distance":13.886,"city":"Cambria Heights","state":"NY"},{"zip_code":"11205","distance":2.716,"city":"Brooklyn","state":"NY"},{"zip_code":"07083","distance":14.347,"city":"Union","state":"NJ"},{"zip_code":"07205","distance":12.266,"city":"Hillside","state":"NJ"},{"zip_code":"07305","distance":4.823,"city":"Jersey City","state":"NJ"},{"zip_code":"07114","distance":9.209,"city":"Newark","state":"NJ"},{"zip_code":"07081","distance":17.718,"city":"Springfield","state":"NJ"},{"zip_code":"11412","distance":12.656,"city":"Saint Albans","state":"NY"},{"zip_code":"11433","distance":11.233,"city":"Jamaica","state":"NY"},{"zip_code":"11003","distance":15.382,"city":"Elmont","state":"NY"},{"zip_code":"11386","distance":5.94,"city":"Ridgewood","state":"NY"},{"zip_code":"11418","distance":8.67,"city":"Richmond Hill","state":"NY"},{"zip_code":"11010","distance":17.012,"city":"Franklin Square","state":"NY"},{"zip_code":"11385","distance":5.956,"city":"Ridgewood","state":"NY"},{"zip_code":"11435","distance":10.014,"city":"Jamaica","state":"NY"},{"zip_code":"11451","distance":10.725,"city":"Jamaica","state":"NY"},{"zip_code":"11550","distance":19.814,"city":"Hempstead","state":"NY"},{"zip_code":"11206","distance":3.336,"city":"Brooklyn","state":"NY"},{"zip_code":"11237","distance":4.283,"city":"Brooklyn","state":"NY"},{"zip_code":"10005","distance":1.465,"city":"New York","state":"NY"},{"zip_code":"11415","distance":8.965,"city":"Kew Gardens","state":"NY"},{"zip_code":"10271","distance":1.366,"city":"New York","state":"NY"},{"zip_code":"10280","distance":1.491,"city":"New York","state":"NY"},{"zip_code":"10038","distance":1.149,"city":"New York","state":"NY"},{"zip_code":"07112","distance":11.128,"city":"Newark","state":"NJ"},{"zip_code":"10006","distance":1.352,"city":"New York","state":"NY"},{"zip_code":"11429","distance":13.636,"city":"Queens Village","state":"NY"},{"zip_code":"07902","distance":18.993,"city":"Summit","state":"NJ"},{"zip_code":"07097","distance":3.414,"city":"Jersey City","state":"NJ"},{"zip_code":"07303","distance":3.414,"city":"Jersey City","state":"NJ"},{"zip_code":"07308","distance":3.414,"city":"Jersey City","state":"NJ"},{"zip_code":"07399","distance":3.414,"city":"Jersey City","state":"NJ"},{"zip_code":"07309","distance":1.994,"city":"Jersey City","state":"NJ"},{"zip_code":"10046","distance":1.244,"city":"New York","state":"NY"},{"zip_code":"10047","distance":1.244,"city":"New York","state":"NY"},{"zip_code":"10048","distance":1.244,"city":"New York","state":"NY"},{"zip_code":"10015","distance":1.076,"city":"New York","state":"NY"},{"zip_code":"10079","distance":1.076,"city":"New York","state":"NY"},{"zip_code":"10094","distance":1.076,"city":"New York","state":"NY"},{"zip_code":"10096","distance":1.076,"city":"New York","state":"NY"},{"zip_code":"10099","distance":1.076,"city":"New York","state":"NY"},{"zip_code":"10184","distance":1.076,"city":"New York","state":"NY"},{"zip_code":"10196","distance":1.076,"city":"New York","state":"NY"},{"zip_code":"10197","distance":1.076,"city":"New York","state":"NY"},{"zip_code":"10008","distance":1.152,"city":"New York","state":"NY"},{"zip_code":"10041","distance":1.152,"city":"New York","state":"NY"},{"zip_code":"10043","distance":1.152,"city":"New York","state":"NY"},{"zip_code":"10045","distance":1.152,"city":"New York","state":"NY"},{"zip_code":"10055","distance":1.152,"city":"New York","state":"NY"},{"zip_code":"10060","distance":1.152,"city":"New York","state":"NY"},{"zip_code":"10080","distance":1.152,"city":"New York","state":"NY"},{"zip_code":"10081","distance":1.152,"city":"New York","state":"NY"},{"zip_code":"10087","distance":1.152,"city":"New York","state":"NY"},{"zip_code":"10090","distance":1.152,"city":"New York","state":"NY"},{"zip_code":"10095","distance":1.152,"city":"New York","state":"NY"},{"zip_code":"10101","distance":1.152,"city":"New York","state":"NY"},{"zip_code":"10102","distance":1.152,"city":"New York","state":"NY"},{"zip_code":"10104","distance":1.152,"city":"New York","state":"NY"},{"zip_code":"10105","distance":1.152,"city":"New York","state":"NY"},{"zip_code":"10106","distance":1.152,"city":"New York","state":"NY"},{"zip_code":"10107","distance":1.152,"city":"New York","state":"NY"},{"zip_code":"10108","distance":1.152,"city":"New York","state":"NY"},{"zip_code":"10109","distance":1.152,"city":"New York","state":"NY"},{"zip_code":"10113","distance":1.152,"city":"New York","state":"NY"},{"zip_code":"10114","distance":1.152,"city":"New York","state":"NY"},{"zip_code":"10116","distance":1.152,"city":"New York","state":"NY"},{"zip_code":"10117","distance":1.152,"city":"New York","state":"NY"},{"zip_code":"10118","distance":1.152,"city":"New York","state":"NY"},{"zip_code":"10120","distance":1.152,"city":"New York","state":"NY"},{"zip_code":"10121","distance":1.152,"city":"New York","state":"NY"},{"zip_code":"10122","distance":1.152,"city":"New York","state":"NY"},{"zip_code":"10123","distance":1.152,"city":"New York","state":"NY"},{"zip_code":"10124","distance":1.152,"city":"New York","state":"NY"},{"zip_code":"10125","distance":1.152,"city":"New York","state":"NY"},{"zip_code":"10126","distance":1.152,"city":"New York","state":"NY"},{"zip_code":"10129","distance":1.152,"city":"New York","state":"NY"},{"zip_code":"10130","distance":1.152,"city":"New York","state":"NY"},{"zip_code":"10131","distance":1.152,"city":"New York","state":"NY"},{"zip_code":"10132","distance":1.152,"city":"New York","state":"NY"},{"zip_code":"10133","distance":1.152,"city":"New York","state":"NY"},{"zip_code":"10138","distance":1.152,"city":"New York","state":"NY"},{"zip_code":"10150","distance":1.152,"city":"New York","state":"NY"},{"zip_code":"10151","distance":1.152,"city":"New York","state":"NY"},{"zip_code":"10155","distance":1.152,"city":"New York","state":"NY"},{"zip_code":"10156","distance":1.152,"city":"New York","state":"NY"},{"zip_code":"10157","distance":1.152,"city":"New York","state":"NY"},{"zip_code":"10158","distance":1.152,"city":"New York","state":"NY"},{"zip_code":"10159","distance":1.152,"city":"New York","state":"NY"},{"zip_code":"10160","distance":1.152,"city":"New York","state":"NY"},{"zip_code":"10161","distance":1.152,"city":"New York","state":"NY"},{"zip_code":"10163","distance":1.152,"city":"New York","state":"NY"},{"zip_code":"10164","distance":1.152,"city":"New York","state":"NY"},{"zip_code":"10166","distance":1.152,"city":"New York","state":"NY"},{"zip_code":"10175","distance":1.152,"city":"New York","state":"NY"},{"zip_code":"10176","distance":1.152,"city":"New York","state":"NY"},{"zip_code":"10178","distance":1.152,"city":"New York","state":"NY"},{"zip_code":"10179","distance":1.152,"city":"New York","state":"NY"},{"zip_code":"10185","distance":1.152,"city":"New York","state":"NY"},{"zip_code":"10203","distance":1.152,"city":"New York","state":"NY"},{"zip_code":"10211","distance":1.152,"city":"New York","state":"NY"},{"zip_code":"10212","distance":1.152,"city":"New York","state":"NY"},{"zip_code":"10213","distance":1.152,"city":"New York","state":"NY"},{"zip_code":"10242","distance":1.152,"city":"New York","state":"NY"},{"zip_code":"10249","distance":1.152,"city":"New York","state":"NY"},{"zip_code":"10256","distance":1.152,"city":"New York","state":"NY"},{"zip_code":"10257","distance":1.152,"city":"New York","state":"NY"},{"zip_code":"10258","distance":1.152,"city":"New York","state":"NY"},{"zip_code":"10259","distance":1.152,"city":"New York","state":"NY"},{"zip_code":"10260","distance":1.152,"city":"New York","state":"NY"},{"zip_code":"10261","distance":1.152,"city":"New York","state":"NY"},{"zip_code":"10265","distance":1.152,"city":"New York","state":"NY"},{"zip_code":"10268","distance":1.152,"city":"New York","state":"NY"},{"zip_code":"10269","distance":1.152,"city":"New York","state":"NY"},{"zip_code":"10270","distance":1.152,"city":"New York","state":"NY"},{"zip_code":"10272","distance":1.152,"city":"New York","state":"NY"},{"zip_code":"10273","distance":1.152,"city":"New York","state":"NY"},{"zip_code":"10274","distance":1.152,"city":"New York","state":"NY"},{"zip_code":"10275","distance":1.152,"city":"New York","state":"NY"},{"zip_code":"10276","distance":1.152,"city":"New York","state":"NY"},{"zip_code":"10277","distance":1.152,"city":"New York","state":"NY"},{"zip_code":"10281","distance":1.152,"city":"New York","state":"NY"},{"zip_code":"10285","distance":1.152,"city":"New York","state":"NY"},{"zip_code":"10286","distance":1.152,"city":"New York","state":"NY"},{"zip_code":"10292","distance":1.152,"city":"New York","state":"NY"},{"zip_code":"10279","distance":1.045,"city":"New York","state":"NY"},{"zip_code":"11211","distance":2.533,"city":"Brooklyn","state":"NY"},{"zip_code":"10007","distance":0.955,"city":"New York","state":"NY"},{"zip_code":"11424","distance":8.975,"city":"Jamaica","state":"NY"},{"zip_code":"07901","distance":19.306,"city":"Summit","state":"NJ"},{"zip_code":"10278","distance":0.78,"city":"New York","state":"NY"},{"zip_code":"11432","distance":10.764,"city":"Jamaica","state":"NY"},{"zip_code":"11423","distance":12.051,"city":"Hollis","state":"NY"},{"zip_code":"10002","distance":0.925,"city":"New York","state":"NY"},{"zip_code":"07304","distance":3.95,"city":"Jersey City","state":"NJ"},{"zip_code":"11379","distance":6.24,"city":"Middle Village","state":"NY"},{"zip_code":"10282","distance":1.081,"city":"New York","state":"NY"},{"zip_code":"07088","distance":15.101,"city":"Vauxhall","state":"NJ"},{"zip_code":"07311","distance":1.855,"city":"Jersey City","state":"NJ"},{"zip_code":"07302","distance":2.556,"city":"Jersey City","state":"NJ"},{"zip_code":"07101","distance":9.009,"city":"Newark","state":"NJ"},{"zip_code":"07175","distance":9.009,"city":"Newark","state":"NJ"},{"zip_code":"07184","distance":9.009,"city":"Newark","state":"NJ"},{"zip_code":"07188","distance":9.009,"city":"Newark","state":"NJ"},{"zip_code":"07189","distance":9.009,"city":"Newark","state":"NJ"},{"zip_code":"07191","distance":9.009,"city":"Newark","state":"NJ"},{"zip_code":"07192","distance":9.009,"city":"Newark","state":"NJ"},{"zip_code":"07193","distance":9.009,"city":"Newark","state":"NJ"},{"zip_code":"07195","distance":9.009,"city":"Newark","state":"NJ"},{"zip_code":"07198","distance":9.009,"city":"Newark","state":"NJ"},{"zip_code":"07199","distance":9.009,"city":"Newark","state":"NJ"},{"zip_code":"07395","distance":4.308,"city":"Jersey City","state":"NJ"},{"zip_code":"11380","distance":6.731,"city":"Elmhurst","state":"NY"},{"zip_code":"11002","distance":15.606,"city":"Floral Park","state":"NY"},{"zip_code":"11531","distance":18.755,"city":"Garden City","state":"NY"},{"zip_code":"11535","distance":18.755,"city":"Garden City","state":"NY"},{"zip_code":"11599","distance":18.755,"city":"Garden City","state":"NY"},{"zip_code":"10013","distance":0.521,"city":"New York","state":"NY"},{"zip_code":"11375","distance":7.957,"city":"Forest Hills","state":"NY"},{"zip_code":"11428","distance":13.385,"city":"Queens Village","state":"NY"},{"zip_code":"07041","distance":15.903,"city":"Millburn","state":"NJ"},{"zip_code":"07108","distance":10.592,"city":"Newark","state":"NJ"},{"zip_code":"07105","distance":7.352,"city":"Newark","state":"NJ"},{"zip_code":"11001","distance":15.362,"city":"Floral Park","state":"NY"},{"zip_code":"07111","distance":12.271,"city":"Irvington","state":"NJ"},{"zip_code":"11378","distance":4.62,"city":"Maspeth","state":"NY"},{"zip_code":"10012","distance":0,"city":"New York","state":"NY"},{"zip_code":"10009","distance":1.022,"city":"New York","state":"NY"},{"zip_code":"11374","distance":7.141,"city":"Rego Park","state":"NY"},{"zip_code":"11530","distance":18.901,"city":"Garden City","state":"NY"},{"zip_code":"11222","distance":2.645,"city":"Brooklyn","state":"NY"},{"zip_code":"11366","distance":11.162,"city":"Fresh Meadows","state":"NY"},{"zip_code":"07182","distance":9.005,"city":"Newark","state":"NJ"},{"zip_code":"07194","distance":9.005,"city":"Newark","state":"NJ"},{"zip_code":"11041","distance":16.653,"city":"New Hyde Park","state":"NY"},{"zip_code":"11043","distance":16.653,"city":"New Hyde Park","state":"NY"},{"zip_code":"11044","distance":16.653,"city":"New Hyde Park","state":"NY"},{"zip_code":"11099","distance":16.653,"city":"New Hyde Park","state":"NY"},{"zip_code":"07310","distance":2.064,"city":"Jersey City","state":"NJ"},{"zip_code":"11367","distance":8.976,"city":"Flushing","state":"NY"},{"zip_code":"07040","distance":14.195,"city":"Maplewood","state":"NJ"},{"zip_code":"11427","distance":13.235,"city":"Queens Village","state":"NY"},{"zip_code":"10003","distance":0.648,"city":"New York","state":"NY"},{"zip_code":"10014","distance":0.739,"city":"New York","state":"NY"},{"zip_code":"07306","distance":3.924,"city":"Jersey City","state":"NJ"},{"zip_code":"07102","distance":9.206,"city":"Newark","state":"NJ"},{"zip_code":"11426","distance":14.449,"city":"Bellerose","state":"NY"},{"zip_code":"07103","distance":10.389,"city":"Newark","state":"NJ"},{"zip_code":"11373","distance":6.336,"city":"Elmhurst","state":"NY"},{"zip_code":"10010","distance":1.237,"city":"New York","state":"NY"},{"zip_code":"11365","distance":10.694,"city":"Fresh Meadows","state":"NY"},{"zip_code":"11120","distance":3.706,"city":"Long Island City","state":"NY"},{"zip_code":"07106","distance":12.201,"city":"Newark","state":"NJ"},{"zip_code":"10011","distance":1.146,"city":"New York","state":"NY"},{"zip_code":"07078","distance":17.647,"city":"Short Hills","state":"NJ"},{"zip_code":"07029","distance":8.313,"city":"Harrison","state":"NJ"},{"zip_code":"11104","distance":4.287,"city":"Sunnyside","state":"NY"},{"zip_code":"11377","distance":5.038,"city":"Woodside","state":"NY"},{"zip_code":"10016","distance":1.716,"city":"New York","state":"NY"},{"zip_code":"07030","distance":2.233,"city":"Hoboken","state":"NJ"},{"zip_code":"11364","distance":12.494,"city":"Oakland Gardens","state":"NY"},{"zip_code":"11040","distance":16.704,"city":"New Hyde Park","state":"NY"},{"zip_code":"11109","distance":2.554,"city":"Long Island City","state":"NY"},{"zip_code":"11004","distance":15.066,"city":"Glen Oaks","state":"NY"},{"zip_code":"11501","distance":18.862,"city":"Mineola","state":"NY"},{"zip_code":"11101","distance":3.443,"city":"Long Island City","state":"NY"},{"zip_code":"07079","distance":13.892,"city":"South Orange","state":"NJ"},{"zip_code":"11368","distance":7.771,"city":"Corona","state":"NY"},{"zip_code":"07099","distance":6.089,"city":"Kearny","state":"NJ"},{"zip_code":"10072","distance":1.742,"city":"New York","state":"NY"},{"zip_code":"10098","distance":1.742,"city":"New York","state":"NY"},{"zip_code":"10119","distance":1.731,"city":"New York","state":"NY"},{"zip_code":"10001","distance":1.735,"city":"New York","state":"NY"},{"zip_code":"07307","distance":3.551,"city":"Jersey City","state":"NJ"},{"zip_code":"10199","distance":1.787,"city":"New York","state":"NY"},{"zip_code":"10168","distance":2.106,"city":"New York","state":"NY"},{"zip_code":"10174","distance":2.154,"city":"New York","state":"NY"},{"zip_code":"11355","distance":9.44,"city":"Flushing","state":"NY"},{"zip_code":"11372","distance":6.265,"city":"Jackson Heights","state":"NY"},{"zip_code":"10165","distance":2.101,"city":"New York","state":"NY"},{"zip_code":"07032","distance":6.795,"city":"Kearny","state":"NJ"},{"zip_code":"10017","distance":2.292,"city":"New York","state":"NY"},{"zip_code":"10170","distance":2.204,"city":"New York","state":"NY"},{"zip_code":"10173","distance":2.21,"city":"New York","state":"NY"},{"zip_code":"10169","distance":2.294,"city":"New York","state":"NY"},{"zip_code":"10110","distance":2.169,"city":"New York","state":"NY"},{"zip_code":"10167","distance":2.357,"city":"New York","state":"NY"},{"zip_code":"10177","distance":2.354,"city":"New York","state":"NY"},{"zip_code":"10172","distance":2.395,"city":"New York","state":"NY"},{"zip_code":"10018","distance":2.076,"city":"New York","state":"NY"},{"zip_code":"07018","distance":11.707,"city":"East Orange","state":"NJ"},{"zip_code":"10171","distance":2.447,"city":"New York","state":"NY"},{"zip_code":"11362","distance":13.934,"city":"Little Neck","state":"NY"},{"zip_code":"11005","distance":15.002,"city":"Floral Park","state":"NY"},{"zip_code":"10154","distance":2.602,"city":"New York","state":"NY"},{"zip_code":"10020","distance":2.476,"city":"New York","state":"NY"},{"zip_code":"10152","distance":2.64,"city":"New York","state":"NY"},{"zip_code":"11042","distance":15.911,"city":"New Hyde Park","state":"NY"},{"zip_code":"10022","distance":2.783,"city":"New York","state":"NY"},{"zip_code":"10111","distance":2.559,"city":"New York","state":"NY"},{"zip_code":"10112","distance":2.514,"city":"New York","state":"NY"},{"zip_code":"10036","distance":2.365,"city":"New York","state":"NY"},{"zip_code":"11596","distance":18.774,"city":"Williston Park","state":"NY"},{"zip_code":"07051","distance":12.378,"city":"Orange","state":"NJ"},{"zip_code":"07019","distance":11.35,"city":"East Orange","state":"NJ"},{"zip_code":"10149","distance":2.565,"city":"New York","state":"NY"},{"zip_code":"11358","distance":10.829,"city":"Flushing","state":"NY"},{"zip_code":"10103","distance":2.663,"city":"New York","state":"NY"},{"zip_code":"10044","distance":3.556,"city":"New York","state":"NY"},{"zip_code":"11106","distance":4.304,"city":"Astoria","state":"NY"},{"zip_code":"11103","distance":5.123,"city":"Astoria","state":"NY"},{"zip_code":"07107","distance":10.2,"city":"Newark","state":"NJ"},{"zip_code":"11369","distance":7.07,"city":"East Elmhurst","state":"NY"},{"zip_code":"10153","distance":2.955,"city":"New York","state":"NY"},{"zip_code":"11361","distance":12.085,"city":"Bayside","state":"NY"},{"zip_code":"10065","distance":3.261,"city":"New York","state":"NY"},{"zip_code":"11370","distance":6.139,"city":"East Elmhurst","state":"NY"},{"zip_code":"10019","distance":2.841,"city":"New York","state":"NY"},{"zip_code":"07087","distance":3.404,"city":"Union City","state":"NJ"},{"zip_code":"07104","distance":9.376,"city":"Newark","state":"NJ"},{"zip_code":"07086","distance":3.151,"city":"Weehawken","state":"NJ"},{"zip_code":"07050","distance":12.789,"city":"Orange","state":"NJ"},{"zip_code":"11354","distance":9.411,"city":"Flushing","state":"NY"},{"zip_code":"10021","distance":3.658,"city":"New York","state":"NY"},{"zip_code":"10162","distance":3.936,"city":"New York","state":"NY"},{"zip_code":"10082","distance":3.218,"city":"New York","state":"NY"},{"zip_code":"11352","distance":8.829,"city":"Flushing","state":"NY"},{"zip_code":"11381","distance":8.829,"city":"Flushing","state":"NY"},{"zip_code":"11390","distance":8.829,"city":"Flushing","state":"NY"},{"zip_code":"11507","distance":18.383,"city":"Albertson","state":"NY"},{"zip_code":"11020","distance":15.151,"city":"Great Neck","state":"NY"},{"zip_code":"07017","distance":11.409,"city":"East Orange","state":"NJ"},{"zip_code":"11363","distance":13.557,"city":"Little Neck","state":"NY"},{"zip_code":"11102","distance":4.975,"city":"Astoria","state":"NY"},{"zip_code":"10075","distance":3.962,"city":"New York","state":"NY"},{"zip_code":"11371","distance":7.358,"city":"Flushing","state":"NY"},{"zip_code":"10023","distance":3.573,"city":"New York","state":"NY"},{"zip_code":"10069","distance":3.505,"city":"New York","state":"NY"},{"zip_code":"10028","distance":4.222,"city":"New York","state":"NY"},{"zip_code":"11105","distance":6.053,"city":"Astoria","state":"NY"},{"zip_code":"07096","distance":4.963,"city":"Secaucus","state":"NJ"},{"zip_code":"11360","distance":11.951,"city":"Bayside","state":"NY"},{"zip_code":"11351","distance":9.799,"city":"Flushing","state":"NY"},{"zip_code":"10128","distance":4.609,"city":"New York","state":"NY"},{"zip_code":"07094","distance":5.324,"city":"Secaucus","state":"NJ"},{"zip_code":"11577","distance":19.22,"city":"Roslyn Heights","state":"NY"},{"zip_code":"11021","distance":14.524,"city":"Great Neck","state":"NY"},{"zip_code":"11356","distance":9.157,"city":"College Point","state":"NY"},{"zip_code":"11357","distance":10.663,"city":"Whitestone","state":"NY"},{"zip_code":"07052","distance":14.58,"city":"West Orange","state":"NJ"},{"zip_code":"07039","distance":17.826,"city":"Livingston","state":"NJ"},{"zip_code":"07031","distance":7.918,"city":"North Arlington","state":"NJ"},{"zip_code":"07093","distance":4.382,"city":"West New York","state":"NJ"},{"zip_code":"11359","distance":12.442,"city":"Bayside","state":"NY"},{"zip_code":"10029","distance":5.375,"city":"New York","state":"NY"},{"zip_code":"11030","distance":16.857,"city":"Manhasset","state":"NY"},{"zip_code":"07047","distance":4.944,"city":"North Bergen","state":"NJ"},{"zip_code":"10035","distance":6.023,"city":"New York","state":"NY"},{"zip_code":"07109","distance":9.846,"city":"Belleville","state":"NJ"},{"zip_code":"07071","distance":7.834,"city":"Lyndhurst","state":"NJ"},{"zip_code":"11576","distance":19.022,"city":"Roslyn","state":"NY"},{"zip_code":"10024","distance":5.183,"city":"New York","state":"NY"},{"zip_code":"10025","distance":5.31,"city":"New York","state":"NY"},{"zip_code":"11023","distance":14.722,"city":"Great Neck","state":"NY"},{"zip_code":"11022","distance":14.945,"city":"Great Neck","state":"NY"},{"zip_code":"11026","distance":14.945,"city":"Great Neck","state":"NY"},{"zip_code":"11027","distance":14.945,"city":"Great Neck","state":"NY"},{"zip_code":"11025","distance":15.425,"city":"Great Neck","state":"NY"},{"zip_code":"10026","distance":5.813,"city":"New York","state":"NY"},{"zip_code":"07028","distance":12.103,"city":"Glen Ridge","state":"NJ"},{"zip_code":"10454","distance":6.973,"city":"Bronx","state":"NY"},{"zip_code":"07003","distance":11.457,"city":"Bloomfield","state":"NJ"},{"zip_code":"10474","distance":8.355,"city":"Bronx","state":"NY"},{"zip_code":"10115","distance":6.163,"city":"New York","state":"NY"},{"zip_code":"10027","distance":6.386,"city":"New York","state":"NY"},{"zip_code":"07020","distance":6.025,"city":"Edgewater","state":"NJ"},{"zip_code":"10037","distance":6.826,"city":"New York","state":"NY"},{"zip_code":"07042","distance":13.071,"city":"Montclair","state":"NJ"},{"zip_code":"10455","distance":7.734,"city":"Bronx","state":"NY"},{"zip_code":"11024","distance":14.74,"city":"Great Neck","state":"NY"},{"zip_code":"07073","distance":7.797,"city":"East Rutherford","state":"NJ"},{"zip_code":"10030","distance":7.022,"city":"New York","state":"NY"},{"zip_code":"10473","distance":9.744,"city":"Bronx","state":"NY"},{"zip_code":"11051","distance":17.872,"city":"Port Washington","state":"NY"},{"zip_code":"11052","distance":17.872,"city":"Port Washington","state":"NY"},{"zip_code":"11053","distance":17.872,"city":"Port Washington","state":"NY"},{"zip_code":"11054","distance":17.872,"city":"Port Washington","state":"NY"},{"zip_code":"11055","distance":17.872,"city":"Port Washington","state":"NY"},{"zip_code":"07070","distance":8.64,"city":"Rutherford","state":"NJ"},{"zip_code":"10451","distance":7.581,"city":"Bronx","state":"NY"},{"zip_code":"07110","distance":10.564,"city":"Nutley","state":"NJ"},{"zip_code":"07022","distance":6.605,"city":"Fairview","state":"NJ"},{"zip_code":"07068","distance":17.639,"city":"Roseland","state":"NJ"},{"zip_code":"07010","distance":6.692,"city":"Cliffside Park","state":"NJ"},{"zip_code":"10465","distance":11.388,"city":"Bronx","state":"NY"},{"zip_code":"10031","distance":7.338,"city":"New York","state":"NY"},{"zip_code":"10459","distance":8.84,"city":"Bronx","state":"NY"},{"zip_code":"07072","distance":7.738,"city":"Carlstadt","state":"NJ"},{"zip_code":"07021","distance":16.174,"city":"Essex Fells","state":"NJ"},{"zip_code":"07657","distance":7.237,"city":"Ridgefield","state":"NJ"},{"zip_code":"10472","distance":9.855,"city":"Bronx","state":"NY"},{"zip_code":"10456","distance":8.609,"city":"Bronx","state":"NY"},{"zip_code":"07007","distance":15.964,"city":"Caldwell","state":"NJ"},{"zip_code":"10039","distance":7.964,"city":"New York","state":"NY"},{"zip_code":"07014","distance":10.255,"city":"Clifton","state":"NJ"},{"zip_code":"07044","distance":14.832,"city":"Verona","state":"NJ"},{"zip_code":"10452","distance":8.654,"city":"Bronx","state":"NY"},{"zip_code":"07074","distance":8.337,"city":"Moonachie","state":"NJ"},{"zip_code":"10032","distance":8.335,"city":"New York","state":"NY"},{"zip_code":"11050","distance":17.797,"city":"Port Washington","state":"NY"},{"zip_code":"10499","distance":10.372,"city":"Bronx","state":"NY"},{"zip_code":"10460","distance":10.147,"city":"Bronx","state":"NY"},{"zip_code":"10462","distance":10.857,"city":"Bronx","state":"NY"},{"zip_code":"07643","distance":8.442,"city":"Little Ferry","state":"NJ"},{"zip_code":"07043","distance":13.412,"city":"Montclair","state":"NJ"},{"zip_code":"07650","distance":8.393,"city":"Palisades Park","state":"NJ"},{"zip_code":"10457","distance":9.872,"city":"Bronx","state":"NY"},{"zip_code":"10461","distance":11.783,"city":"Bronx","state":"NY"},{"zip_code":"07012","distance":12,"city":"Clifton","state":"NJ"},{"zip_code":"07699","distance":9.188,"city":"Teterboro","state":"NJ"},{"zip_code":"07075","distance":9.784,"city":"Wood Ridge","state":"NJ"},{"zip_code":"10033","distance":9.26,"city":"New York","state":"NY"},{"zip_code":"07024","distance":8.756,"city":"Fort Lee","state":"NJ"},{"zip_code":"07006","distance":17.242,"city":"Caldwell","state":"NJ"},{"zip_code":"10453","distance":9.875,"city":"Bronx","state":"NY"},{"zip_code":"07608","distance":9.391,"city":"Teterboro","state":"NJ"},{"zip_code":"07057","distance":10.476,"city":"Wallington","state":"NJ"},{"zip_code":"07660","distance":8.995,"city":"Ridgefield Park","state":"NJ"},{"zip_code":"07055","distance":11.28,"city":"Passaic","state":"NJ"},{"zip_code":"07606","distance":9.514,"city":"South Hackensack","state":"NJ"},{"zip_code":"07009","distance":15.178,"city":"Cedar Grove","state":"NJ"},{"zip_code":"10040","distance":9.831,"city":"New York","state":"NY"},{"zip_code":"07015","distance":12.223,"city":"Clifton","state":"NJ"},{"zip_code":"10458","distance":11.077,"city":"Bronx","state":"NY"},{"zip_code":"07604","distance":10.309,"city":"Hasbrouck Heights","state":"NJ"},{"zip_code":"07605","distance":9.538,"city":"Leonia","state":"NJ"},{"zip_code":"10034","distance":10.515,"city":"New York","state":"NY"},{"zip_code":"10469","distance":12.624,"city":"Bronx","state":"NY"},{"zip_code":"10468","distance":11.156,"city":"Bronx","state":"NY"},{"zip_code":"07013","distance":13.504,"city":"Clifton","state":"NJ"},{"zip_code":"10464","distance":14.525,"city":"Bronx","state":"NY"},{"zip_code":"10467","distance":12.143,"city":"Bronx","state":"NY"},{"zip_code":"07603","distance":10.408,"city":"Bogota","state":"NJ"},{"zip_code":"10475","distance":13.778,"city":"Bronx","state":"NY"},{"zip_code":"07644","distance":11.411,"city":"Lodi","state":"NJ"},{"zip_code":"07011","distance":13.027,"city":"Clifton","state":"NJ"},{"zip_code":"07026","distance":12.111,"city":"Garfield","state":"NJ"},{"zip_code":"07602","distance":10.895,"city":"Hackensack","state":"NJ"},{"zip_code":"10463","distance":11.74,"city":"Bronx","state":"NY"},{"zip_code":"07004","distance":19.354,"city":"Fairfield","state":"NJ"},{"zip_code":"07424","distance":15.355,"city":"Little Falls","state":"NJ"},{"zip_code":"07601","distance":11.592,"city":"Hackensack","state":"NJ"},{"zip_code":"10470","distance":13.093,"city":"Bronx","state":"NY"},{"zip_code":"07632","distance":11.712,"city":"Englewood Cliffs","state":"NJ"},{"zip_code":"07666","distance":11.406,"city":"Teaneck","state":"NJ"},{"zip_code":"10466","distance":13.917,"city":"Bronx","state":"NY"},{"zip_code":"07631","distance":11.524,"city":"Englewood","state":"NJ"},{"zip_code":"07503","distance":14.41,"city":"Paterson","state":"NJ"},{"zip_code":"10805","distance":16.508,"city":"New Rochelle","state":"NY"},{"zip_code":"10471","distance":12.96,"city":"Bronx","state":"NY"},{"zip_code":"07511","distance":16.726,"city":"Totowa","state":"NJ"},{"zip_code":"10557","distance":15.236,"city":"Mount Vernon","state":"NY"},{"zip_code":"10558","distance":15.236,"city":"Mount Vernon","state":"NY"},{"zip_code":"10803","distance":15.672,"city":"Pelham","state":"NY"},{"zip_code":"07607","distance":12.72,"city":"Maywood","state":"NJ"},{"zip_code":"07663","distance":13.238,"city":"Saddle Brook","state":"NJ"},{"zip_code":"07512","distance":16.895,"city":"Totowa","state":"NJ"},{"zip_code":"07407","distance":13.903,"city":"Elmwood Park","state":"NJ"},{"zip_code":"10550","distance":15.064,"city":"Mount Vernon","state":"NY"},{"zip_code":"07513","distance":14.761,"city":"Paterson","state":"NJ"},{"zip_code":"10553","distance":15.653,"city":"Mount Vernon","state":"NY"},{"zip_code":"07509","distance":15.306,"city":"Paterson","state":"NJ"},{"zip_code":"07510","distance":15.306,"city":"Paterson","state":"NJ"},{"zip_code":"07533","distance":15.306,"city":"Paterson","state":"NJ"},{"zip_code":"07543","distance":15.306,"city":"Paterson","state":"NJ"},{"zip_code":"07544","distance":15.306,"city":"Paterson","state":"NJ"},{"zip_code":"10551","distance":15.786,"city":"Mount Vernon","state":"NY"},{"zip_code":"07662","distance":13.537,"city":"Rochelle Park","state":"NJ"},{"zip_code":"07501","distance":15.742,"city":"Paterson","state":"NJ"},{"zip_code":"07504","distance":14.95,"city":"Paterson","state":"NJ"},{"zip_code":"07505","distance":16.006,"city":"Paterson","state":"NJ"},{"zip_code":"10801","distance":17.326,"city":"New Rochelle","state":"NY"},{"zip_code":"07670","distance":13.547,"city":"Tenafly","state":"NJ"},{"zip_code":"07502","distance":16.818,"city":"Paterson","state":"NJ"},{"zip_code":"10705","distance":14.562,"city":"Yonkers","state":"NY"},{"zip_code":"10704","distance":15.165,"city":"Yonkers","state":"NY"},{"zip_code":"07477","distance":19.571,"city":"Wayne","state":"NJ"},{"zip_code":"10802","distance":17.964,"city":"New Rochelle","state":"NY"},{"zip_code":"07621","distance":13.594,"city":"Bergenfield","state":"NJ"},{"zip_code":"10552","distance":16.422,"city":"Mount Vernon","state":"NY"},{"zip_code":"07522","distance":16.715,"city":"Paterson","state":"NJ"},{"zip_code":"07514","distance":15.863,"city":"Paterson","state":"NJ"},{"zip_code":"07661","distance":14.113,"city":"River Edge","state":"NJ"},{"zip_code":"07538","distance":17.037,"city":"Haledon","state":"NJ"},{"zip_code":"07524","distance":16.484,"city":"Paterson","state":"NJ"},{"zip_code":"07646","distance":14.456,"city":"New Milford","state":"NJ"},{"zip_code":"07410","distance":15.808,"city":"Fair Lawn","state":"NJ"},{"zip_code":"10538","distance":19.359,"city":"Larchmont","state":"NY"},{"zip_code":"10708","distance":17.12,"city":"Bronxville","state":"NY"},{"zip_code":"07626","distance":14.945,"city":"Cresskill","state":"NJ"},{"zip_code":"07474","distance":19.476,"city":"Wayne","state":"NJ"},{"zip_code":"07653","distance":15.291,"city":"Paramus","state":"NJ"},{"zip_code":"10702","distance":16.482,"city":"Yonkers","state":"NY"},{"zip_code":"07628","distance":15.181,"city":"Dumont","state":"NJ"},{"zip_code":"10701","distance":16.384,"city":"Yonkers","state":"NY"},{"zip_code":"07470","distance":19.958,"city":"Wayne","state":"NJ"},{"zip_code":"10804","distance":18.83,"city":"New Rochelle","state":"NY"},{"zip_code":"07652","distance":15.778,"city":"Paramus","state":"NJ"},{"zip_code":"07507","distance":17.42,"city":"Hawthorne","state":"NJ"},{"zip_code":"07627","distance":15.97,"city":"Demarest","state":"NJ"},{"zip_code":"10709","distance":18.675,"city":"Eastchester","state":"NY"},{"zip_code":"07508","distance":18.592,"city":"Haledon","state":"NJ"},{"zip_code":"07649","distance":16.07,"city":"Oradell","state":"NJ"},{"zip_code":"07506","distance":18.055,"city":"Hawthorne","state":"NJ"},{"zip_code":"07452","distance":17.478,"city":"Glen Rock","state":"NJ"},{"zip_code":"10703","distance":17.323,"city":"Yonkers","state":"NY"},{"zip_code":"10707","distance":18.643,"city":"Tuckahoe","state":"NY"},{"zip_code":"07641","distance":16.318,"city":"Haworth","state":"NJ"},{"zip_code":"10710","distance":18.484,"city":"Yonkers","state":"NY"},{"zip_code":"07620","distance":17.335,"city":"Alpine","state":"NJ"},{"zip_code":"07624","distance":17.204,"city":"Closter","state":"NJ"},{"zip_code":"07630","distance":17.287,"city":"Emerson","state":"NJ"},{"zip_code":"07451","distance":18.525,"city":"Ridgewood","state":"NJ"},{"zip_code":"07450","distance":18.688,"city":"Ridgewood","state":"NJ"},{"zip_code":"07676","distance":18.484,"city":"Township Of Washington","state":"NJ"},{"zip_code":"10706","distance":19.492,"city":"Hastings On Hudson","state":"NY"},{"zip_code":"07640","distance":18.412,"city":"Harrington Park","state":"NJ"},{"zip_code":"07648","distance":18.591,"city":"Norwood","state":"NJ"},{"zip_code":"07423","distance":19.615,"city":"Ho Ho Kus","state":"NJ"},{"zip_code":"07675","distance":19.205,"city":"Westwood","state":"NJ"},{"zip_code":"07647","distance":19.618,"city":"Northvale","state":"NJ"},{"zip_code":"07642","distance":19.608,"city":"Hillsdale","state":"NJ"}]}